{
  "type": "FeatureCollection",
  "features": [
    {
      "type": "Feature",
      "properties": {
        "norad_id": 33805,
        "name": "COSMOS 2251 DEB",
        "group": "cosmos-2251-debris",
        "lat": 15.11518036463112,
        "lon": -34.47110127331854,
        "alt_km": 731.1450477089602,
        "timestamp": "2025-12-07T14:37:05.596197+00:00",
        "meta_object_name": "COSMOS 2251 DEB",
        "meta_object_id": "1993-036AW",
        "meta_epoch": "2025-12-06T08:54:01.135872",
        "meta_mean_motion": 14.57833934,
        "meta_eccentricity": 0.00604653,
        "meta_inclination": 74.0305,
        "meta_ra_of_asc_node": 323.4474,
        "meta_arg_of_pericenter": 154.2159,
        "meta_mean_anomaly": 206.2042,
        "meta_ephemeris_type": 0,
        "meta_classification_type": "U",
        "meta_norad_cat_id": 33805,
        "meta_element_set_no": 999,
        "meta_rev_at_epoch": 89134,
        "meta_bstar": 0.00047404392,
        "meta_mean_motion_dot": 2.195e-05,
        "meta_mean_motion_ddot": 0,
        "tle_line1": "1 33805U 93036AW  25340.37084648  .00002195  00000+0  47404-3 0  9992",
        "tle_line2": "2 33805  74.0305 323.4474 0060465 154.2159 206.2042 14.57833934891343"
      },
      "geometry": {
        "type": "Point",
        "coordinates": [
          -34.47110127331854,
          15.11518036463112
        ]
      }
    },
    {
      "type": "Feature",
      "properties": {
        "norad_id": 33811,
        "name": "COSMOS 2251 DEB",
        "group": "cosmos-2251-debris",
        "lat": 73.71434168510254,
        "lon": 50.228287622112596,
        "alt_km": 532.3141838172905,
        "timestamp": "2025-12-07T14:37:05.596207+00:00",
        "meta_object_name": "COSMOS 2251 DEB",
        "meta_object_id": "1993-036BC",
        "meta_epoch": "2025-12-06T16:40:48.077760",
        "meta_mean_motion": 15.04976723,
        "meta_eccentricity": 0.00308272,
        "meta_inclination": 73.8377,
        "meta_ra_of_asc_node": 315.19,
        "meta_arg_of_pericenter": 37.0382,
        "meta_mean_anomaly": 144.1331,
        "meta_ephemeris_type": 0,
        "meta_classification_type": "U",
        "meta_norad_cat_id": 33811,
        "meta_element_set_no": 999,
        "meta_rev_at_epoch": 89927,
        "meta_bstar": 0.0019947604,
        "meta_mean_motion_dot": 0.0002867,
        "meta_mean_motion_ddot": 0,
        "tle_line1": "1 33811U 93036BC  25340.69500090  .00028670  00000+0  19948-2 0  9995",
        "tle_line2": "2 33811  73.8377 315.1900 0030827  37.0382 144.1331 15.04976723899271"
      },
      "geometry": {
        "type": "Point",
        "coordinates": [
          50.228287622112596,
          73.71434168510254
        ]
      }
    },
    {
      "type": "Feature",
      "properties": {
        "norad_id": 33815,
        "name": "COSMOS 2251 DEB",
        "group": "cosmos-2251-debris",
        "lat": -56.820176789940206,
        "lon": 161.22784900991653,
        "alt_km": 522.1881348721427,
        "timestamp": "2025-12-07T14:37:05.596218+00:00",
        "meta_object_name": "COSMOS 2251 DEB",
        "meta_object_id": "1993-036BG",
        "meta_epoch": "2025-12-06T17:02:30.503328",
        "meta_mean_motion": 15.16006069,
        "meta_eccentricity": 0.00038295,
        "meta_inclination": 73.9538,
        "meta_ra_of_asc_node": 189.2245,
        "meta_arg_of_pericenter": 245.619,
        "meta_mean_anomaly": 188.9395,
        "meta_ephemeris_type": 0,
        "meta_classification_type": "U",
        "meta_norad_cat_id": 33815,
        "meta_element_set_no": 999,
        "meta_rev_at_epoch": 88279,
        "meta_bstar": 0.0091514723,
        "meta_mean_motion_dot": 0.00180316,
        "meta_mean_motion_ddot": 0,
        "tle_line1": "1 33815U 93036BG  25340.71007527  .00180316  00000+0  91515-2 0  9995",
        "tle_line2": "2 33815  73.9538 189.2245 0003829 245.6190 188.9395 15.16006069882798"
      },
      "geometry": {
        "type": "Point",
        "coordinates": [
          161.22784900991653,
          -56.820176789940206
        ]
      }
    },
    {
      "type": "Feature",
      "properties": {
        "norad_id": 33816,
        "name": "COSMOS 2251 DEB",
        "group": "cosmos-2251-debris",
        "lat": 39.66690242723494,
        "lon": -79.77060149653802,
        "alt_km": 762.6326167740854,
        "timestamp": "2025-12-07T14:37:05.596228+00:00",
        "meta_object_name": "COSMOS 2251 DEB",
        "meta_object_id": "1993-036BH",
        "meta_epoch": "2025-12-06T18:51:07.975872",
        "meta_mean_motion": 13.81770574,
        "meta_eccentricity": 0.02650468,
        "meta_inclination": 73.8941,
        "meta_ra_of_asc_node": 115.4871,
        "meta_arg_of_pericenter": 129.5773,
        "meta_mean_anomaly": 232.9089,
        "meta_ephemeris_type": 0,
        "meta_classification_type": "U",
        "meta_norad_cat_id": 33816,
        "meta_element_set_no": 999,
        "meta_rev_at_epoch": 84591,
        "meta_bstar": 0.00096590245,
        "meta_mean_motion_dot": 1.329e-05,
        "meta_mean_motion_ddot": 0,
        "tle_line1": "1 33816U 93036BH  25340.78550898  .00001329  00000+0  96590-3 0  9992",
        "tle_line2": "2 33816  73.8941 115.4871 0265046 129.5773 232.9089 13.81770574845912"
      },
      "geometry": {
        "type": "Point",
        "coordinates": [
          -79.77060149653802,
          39.66690242723494
        ]
      }
    },
    {
      "type": "Feature",
      "properties": {
        "norad_id": 33818,
        "name": "COSMOS 2251 DEB",
        "group": "cosmos-2251-debris",
        "lat": -72.05103490887123,
        "lon": 115.02750841574428,
        "alt_km": 544.2244416692929,
        "timestamp": "2025-12-07T14:37:05.596239+00:00",
        "meta_object_name": "COSMOS 2251 DEB",
        "meta_object_id": "1993-036BK",
        "meta_epoch": "2025-12-06T20:00:59.616576",
        "meta_mean_motion": 15.11832953,
        "meta_eccentricity": 0.00284909,
        "meta_inclination": 74.0752,
        "meta_ra_of_asc_node": 178.4416,
        "meta_arg_of_pericenter": 169.3349,
        "meta_mean_anomaly": 212.0527,
        "meta_ephemeris_type": 0,
        "meta_classification_type": "U",
        "meta_norad_cat_id": 33818,
        "meta_element_set_no": 999,
        "meta_rev_at_epoch": 89773,
        "meta_bstar": 0.0034197623,
        "meta_mean_motion_dot": 0.00059476,
        "meta_mean_motion_ddot": 0,
        "tle_line1": "1 33818U 93036BK  25340.83402334  .00059476  00000+0  34198-2 0  9992",
        "tle_line2": "2 33818  74.0752 178.4416 0028490 169.3349 212.0527 15.11832953897730"
      },
      "geometry": {
        "type": "Point",
        "coordinates": [
          115.02750841574428,
          -72.05103490887123
        ]
      }
    },
    {
      "type": "Feature",
      "properties": {
        "norad_id": 33819,
        "name": "COSMOS 2251 DEB",
        "group": "cosmos-2251-debris",
        "lat": 70.15289985668986,
        "lon": -89.10346895102758,
        "alt_km": 713.7820351698092,
        "timestamp": "2025-12-07T14:37:05.596253+00:00",
        "meta_object_name": "COSMOS 2251 DEB",
        "meta_object_id": "1993-036BL",
        "meta_epoch": "2025-12-06T20:11:04.565184",
        "meta_mean_motion": 14.32192874,
        "meta_eccentricity": 0.0088836,
        "meta_inclination": 74.1795,
        "meta_ra_of_asc_node": 220.5148,
        "meta_arg_of_pericenter": 83.6422,
        "meta_mean_anomaly": 355.8472,
        "meta_ephemeris_type": 0,
        "meta_classification_type": "U",
        "meta_norad_cat_id": 33819,
        "meta_element_set_no": 999,
        "meta_rev_at_epoch": 87411,
        "meta_bstar": 0.0011491743,
        "meta_mean_motion_dot": 3.211e-05,
        "meta_mean_motion_ddot": 0,
        "tle_line1": "1 33819U 93036BL  25340.84102506  .00003211  00000+0  11492-2 0  9990",
        "tle_line2": "2 33819  74.1795 220.5148 0088836  83.6422 355.8472 14.32192874874115"
      },
      "geometry": {
        "type": "Point",
        "coordinates": [
          -89.10346895102758,
          70.15289985668986
        ]
      }
    },
    {
      "type": "Feature",
      "properties": {
        "norad_id": 33821,
        "name": "COSMOS 2251 DEB",
        "group": "cosmos-2251-debris",
        "lat": -21.289243736300506,
        "lon": -19.912333806906055,
        "alt_km": 460.6094286189036,
        "timestamp": "2025-12-07T14:37:05.596264+00:00",
        "meta_object_name": "COSMOS 2251 DEB",
        "meta_object_id": "1993-036BN",
        "meta_epoch": "2025-12-06T20:24:50.306400",
        "meta_mean_motion": 15.2478512,
        "meta_eccentricity": 0.00533722,
        "meta_inclination": 74.0289,
        "meta_ra_of_asc_node": 155.2818,
        "meta_arg_of_pericenter": 190.2546,
        "meta_mean_anomaly": 169.7571,
        "meta_ephemeris_type": 0,
        "meta_classification_type": "U",
        "meta_norad_cat_id": 33821,
        "meta_element_set_no": 999,
        "meta_rev_at_epoch": 74911,
        "meta_bstar": 0.0018160489,
        "meta_mean_motion_dot": 0.00047158,
        "meta_mean_motion_ddot": 0,
        "tle_line1": "1 33821U 93036BN  25340.85058225  .00047158  00000+0  18160-2 0  9999",
        "tle_line2": "2 33821  74.0289 155.2818 0053372 190.2546 169.7571 15.24785120749119"
      },
      "geometry": {
        "type": "Point",
        "coordinates": [
          -19.912333806906055,
          -21.289243736300506
        ]
      }
    }
  ]
}